#dP2023  2 26  0  0  0.00000000      96 __u+U ITR00 FIT  IAC
## 2251      0.00000000   900.00000000 60001 0.0000000000000
+  119   C06C07C08C09C10C11C12C13C14C16C19C20C21C22C23C24C25
+        C26C27C28C29C30C32C33C34C35C36C37C38C39C40C41C42C43
+        C44C45C46E01E02E03E04E05E07E08E09E10E11E12E14E15E18
+        E19E21E24E25E26E27E30E31E33E34E36G01G02G03G04G05G06
+        G07G08G09G10G11G12G13G14G15G16G17G18G19G20G21G22G23
+        G24G25G26G27G28G29G30G31G32J02J03J04R01R02R03R04R05
+        R07R08R09R11R12R13R14R15R16R17R18R19R20R21R22R24R25
++         7  8  9  8  9 10  9  9  8  8  5  7  8  6  7  7  6
++         7  7  8  6  6  8  6  7 15  7  8  8  8  8  8  6  8
++         7  7  7  6  7  6  7  7  7  7  8  7  8  7  6  7  7
++         7  7  5  6  6  7  7  5  4  7  7  7  6  7  7  6  7
++         7  7  7  6  6  5  7  6  6  6  6  6  7  6  6  7  6
++         6  6  5  8  6  6  6  5  6  8  9  9  8  8  7  7  7
++         6  7  7  6  7  8  7  7  8  8  7  6  7  7  7  8  7
%c M  cc GPS ccc cccc cccc cccc cccc ccccc ccccc ccccc ccccc
%c cc cc ccc ccc cccc cccc cccc cccc ccccc ccccc ccccc ccccc
%f  0.0000000  0.000000000  0.00000000000  0.000000000000000
%f  0.0000000  0.000000000  0.00000000000  0.000000000000000
%i    0    0    0    0      0      0      0      0         0
%i    0    0    0    0      0      0      0      0         0
/* INFORMATION & ANALYSIS CENTER (IAC)      ULTRA-RAPID DATA
/* S/V CLOCKS ARE ALIGNED TO GNSS TIME                      
/* G:C1WC2W R:C1PC2P E:C1XC5X C:C2IC6I J:C1CC2S             
/* PCV:IGS20_2247 OL/AL:FES2004  NONE     YN ORB:CoN CLK:CoN
*  2023 02 26  0 30  0.00000000
PC06  -9830.911182  22990.848461  33939.102499 999999.999999
PC07 -16398.554564  37949.230327  -8669.212889 999999.999999
PC08    203.965740  35504.424594 -22583.049657 999999.999999
PC09    502.133368  25206.740754  34247.817568 999999.999999
PC10 -10830.802513  38359.035768 -14201.872340 999999.999999
PC11 -12759.984981  13298.714495 -20890.515596 999999.999999
PC12 -26433.363151   4442.734218  -7727.185568 999999.999999
PC13   4409.762241  37953.071540 -17370.894950 999999.999999
PC14 -12909.490790  24710.792972   1808.947616 999999.999999
PC16 -11799.394403  22005.937721  34146.932337 999999.999999
PC19   6026.947176 -24999.889529 -10781.752925 999999.999999
PC20  17042.586248 -21280.607894   5899.098052 999999.999999
PC21 -18625.072743   4406.717701 -20295.758464 999999.999999
PC22  -9035.131492 -14448.820590 -22088.995726 999999.999999
PC23  15947.081705  22590.942969  -3734.763548 999999.999999
PC24 -12156.944195  11310.440241  22406.122538 999999.999999
PC25   4222.394013  24539.447359  12564.273000 999999.999999
PC26 -19574.355897  -6199.524976  18896.077313 999999.999999
PC27  27896.933240    868.685969   -575.394380 999999.999999
PC28  19944.358346  11355.256973 -15873.127267 999999.999999
PC29    625.194633 -15958.861897  22878.467589 999999.999999
PC30  20765.976988 -10970.624137  15086.348915 999999.999999
PC32  18581.506501  -4418.201951  20362.021213 999999.999999
PC33  -5917.528144  25084.820965  10729.568493 999999.999999
PC34 -19709.524562  11584.847373 -15994.758664 999999.999999
PC35 -19357.272622 -11243.934548  16625.940017 999999.999999
PC36  -3099.368309 -24436.901913 -13108.251695 999999.999999
PC37  19609.873460   8038.910245 -18137.260327 999999.999999
PC38  -6639.965523  30917.311775 -27774.008017 999999.999999
PC39 -18649.360369  20233.436437  31917.278267 999999.999999
PC40 -23409.254615  34454.874706  -7269.508816 999999.999999
PC41   8680.169175  15013.875849  21920.713501 999999.999999
PC42 -17472.077382  20596.436022  -7017.402555 999999.999999
PC43  -1577.981634  16067.031501 -22768.940182 999999.999999
PC44 -27876.483334     51.686103    726.577480 999999.999999
PC45 -16109.342184 -22423.921786   4134.725221 999999.999999
PC46  10869.403663 -12950.975361 -22215.952372 999999.999999
PE01 -16493.571662   6250.093119  23763.096376 999999.999999
PE02  16443.039374  -6821.183758 -23662.547732 999999.999999
PE03  27182.189669 -10309.710390   5546.833892 999999.999999
PE04 -18144.750760  19794.994760  12460.314192 999999.999999
PE05  20426.627886   5476.623929  20716.463208 999999.999999
PE07  -1692.989246 -17877.407217 -23522.108343 999999.999999
PE08  18280.955559 -19724.221437 -12355.087815 999999.999999
PE09   1445.342848  17840.709952  23581.402136 999999.999999
PE10   1823.489662  18453.220380 -23075.188815 999999.999999
PE11  12656.452112  20650.076014 -17035.869148 999999.999999
PE12  -8353.811372  13748.369549 -24844.844718 999999.999999
PE14  21722.714660 -10557.588004   2084.806416 999999.999999
PE15   8675.978801 -13467.428592  24899.656163 999999.999999
PE18 -22596.973322  19472.991345 -12146.280785 999999.999999
PE19 -27238.645554   8334.411106  -8029.138666 999999.999999
PE21 -14337.538528 -14382.451012  21529.938114 999999.999999
PE24   3251.376612  28765.794240  -6125.731676 999999.999999
PE25  14232.239452  14696.281502 -21390.325666 999999.999999
PE26 -25454.120442 -15091.164650   -583.503809 999999.999999
PE27  -3858.810459 -28539.175849   6870.953429 999999.999999
PE30   9277.027391 -25330.671649 -12224.031930 999999.999999
PE31  -8784.134655  25734.320892  11683.498292 999999.999999
PE33 -23932.351954  -1493.872169 -17337.298973 999999.999999
PE34  23868.804304   1319.452243  17455.019022 999999.999999
PE36  25232.018317  15490.721247   -212.249348 999999.999999
PG01  22322.050566  14584.164052   1869.266649 999999.999999
PG02 -23752.512715 -10605.177880  -4063.506214 999999.999999
PG03  12725.522858  11403.691119  20243.824199 999999.999999
PG04  20905.755953   3274.155368  16129.724728 999999.999999
PG05  -6048.470690 -23816.546135 -10094.412131 999999.999999
PG06   7121.600108 -12848.800980  22191.077658 999999.999999
PG07  22468.919847   3915.847090 -13571.211386 999999.999999
PG08  11075.149290  11257.148786 -21462.407619 999999.999999
PG09  24712.855146  -6566.729727   7197.907273 999999.999999
PG10 -11178.265511  19192.608662 -14152.105367 999999.999999
PG11  -6281.407777 -19609.932784  16805.964271 999999.999999
PG12 -11274.546540 -14059.642281  19262.519155 999999.999999
PG13  -2554.789371 -14966.453732 -21957.211035 999999.999999
PG14  13351.035567 -16596.941504 -15778.649637 999999.999999
PG15 -12833.082944 -10478.313347 -21248.074958 999999.999999
PG16   1581.851543  24965.191188  -8495.610478 999999.999999
PG17  22033.890131 -13560.071687   6666.437814 999999.999999
PG18 -20388.555753   -416.770375 -17092.067296 999999.999999
PG19  14887.566125 -15803.980292  14876.946220 999999.999999
PG20  -1141.447727 -26615.485243   1399.688701 999999.999999
PG21  20399.103670  16475.306404  -5827.938132 999999.999999
PG22 -11022.082632  17058.087908  17464.321394 999999.999999
PG23 -14600.083879   7800.583732 -20733.195764 999999.999999
PG24 -21905.696522 -15187.352339  -3019.262917 999999.999999
PG25 -15002.331206  -3078.096454  21401.671934 999999.999999
PG26  -4749.597605  25280.922861   5735.575564 999999.999999
PG27   -957.334006  16410.881835 -21008.709324 999999.999999
PG28  -8869.872361  12333.854753  21753.847127 999999.999999
PG29 -24509.077881   2028.173034  10082.875902 999999.999999
PG30  14915.372792  -7892.386693 -20465.597047 999999.999999
PG31  -5899.907595  14384.922129  21318.829050 999999.999999
PG32 -19382.985294  15938.617092   8553.377947 999999.999999
PJ02 -28948.292095  25318.863115  22301.482020 999999.999999
PJ03 -30076.111922  15957.813893 -20263.615876 999999.999999
PJ04 -22594.715576  34319.569315  -4242.931617 999999.999999
PR01  10794.091949   4014.313785  22764.928823 999999.999999
PR02  18550.934974 -12017.916224  12838.081368 999999.999999
PR03  14883.560301 -20310.448718  -4217.937850 999999.999999
PR04   3315.540226 -17018.131054 -18682.694872 999999.999999
PR05 -10145.008897  -4623.733033 -22924.982912 999999.999999
PR07 -14394.273488  20391.173793   5177.492328 999999.999999
PR08  -2911.352229  16980.382174  18860.101761 999999.999999
PR09 -11342.093876   1917.747138  22775.487920 999999.999999
PR11   7024.563167  24252.313479   3680.671728 999999.999999
PR12  13199.843509  16220.775056 -14573.655241 999999.999999
PR13  11706.724722    240.282708 -22682.543325 999999.999999
PR14   2632.158615 -18087.001783 -17782.175897 999999.999999
PR15  -7344.429878 -24299.185166  -2496.210561 999999.999999
PR16 -13216.693007 -16404.992427  14363.440570 999999.999999
PR17  10521.251719  -8037.807104  21806.160340 999999.999999
PR18  -7351.742571 -11409.071599  21600.348721 999999.999999
PR19 -20521.049493 -10003.354416  11376.829018 999999.999999
PR20 -23725.007581  -1431.304158  -9183.427372 999999.999999
PR21  -8882.964205   8472.352839 -22360.892839 999999.999999
PR22   7844.277609  12084.105019 -21027.133767 999999.999999
PR24  23584.611042    138.983086   9727.735409 999999.999999
PR25 -11292.558134   7675.598026 -21542.432772 999999.999999
EOF
